C/2019 Q1 (Lemmon),h,07/20.2768/2020,155.7254,42.4718,56.1480,1.000135,4.999996,2000,8.5,4.0
# From MPC117072
A/2019 Q2,e,159.0305,188.0080,176.3325,57.37143,0.0022681,0.97803361,0.0000,07/22.0360/2019,2000,g 18.0,2.0
# From MPC117072
C/2019 Q3 (PANSTARRS),h,08/21.5496/2018,65.5274,151.3246,152.7598,1.003112,7.260865,2000,8.5,4.0
# From MPC117072
P/2019 S2 (PANSTARRS),e,10.4696,93.1396,217.0791,4.740193,0.0955015,0.20632775,113.8892,05/30.0/2022,2000,g 13.5,4.0
# From MPEC 2022-CN4
P/2019 S3 (PANSTARRS),e,8.6948,150.1607,213.0131,3.415337,0.1561542,0.47121659,157.2948,05/30.0/2022,2000,g 18.3,4.0
# From MPEC 2021-S45
C/2019 S4 (Lemmon),e,92.0495,63.1531,71.3690,230.5407,0.0002816,0.98506763,0.0000,04/07.9002/2020,2000,g 11.0,4.0
# From MPEC 2022-HC2
A/2019 T1,e,120.8758,6.9454,91.0659,38.52126,0.0041224,0.88883879,2.0630,05/30.0/2022,2000,g 13.0,2.0
# From MPEC 2022-J42
C/2019 T2 (Lemmon),e,111.4882,155.6435,239.4149,2539,0.0000077,0.99895775,0.0000,04/22.3801/2021,2000,g  9.0,4.0
# From MPEC 2022-C56
C/2019 T3 (ATLAS),e,121.8528,139.5285,112.3871,3506,0.0000047,0.99830337,0.0000,03/03.7600/2021,2000,g  6.8,4.0
# From MPEC 2022-K19
C/2019 T4 (ATLAS),e,53.6288,199.9390,351.2008,1005,0.0000310,0.99577729,0.0000,06/09.1350/2022,2000,g  5.0,4.0
# From MPEC 2021-P47
P/2019 T5 (ATLAS),e,33.4580,247.6478,189.5619,7.995718,0.0435931,0.80925309,45.0174,05/30.0/2022,2000,g 15.0,4.0
# From MPEC 2021-P47
P/2019 T6 (PANSTARRS),e,18.6966,71.2577,328.9394,5.435752,0.0777704,0.62288800,72.6280,05/30.0/2022,2000,g 15.5,4.0
# From MPC118096
P/2019 U4 (PANSTARRS),e,11.6981,200.0019,180.9963,3.520396,0.1492165,0.47587995,146.8430,05/30.0/2022,2000,g 19.0,4.0
# From MPEC 2022-K19
C/2019 U5 (PANSTARRS),h,03/29.9690/2023,113.5208,2.6376,181.5213,1.001294,3.623782,2000,4.5,4.0
# From MPEC 2022-H04
C/2019 U6 (Lemmon),e,60.9938,235.7188,329.6317,367.8656,0.0001397,0.99751458,0.0000,06/18.6327/2020,2000,g 10.0,4.0
# From MPC119998
C/2019 V1 (Borisov),e,61.8766,83.1833,51.1708,1429,0.0000182,0.99783338,0.0000,07/16.3797/2020,2000,g 11.0,4.0
# From MPEC 2022-HC2
P/2019 V2 (Groeller),e,11.8077,189.1830,335.8882,7.505382,0.0479341,0.33124889,28.2048,05/30.0/2022,2000,g 10.0,4.0
# From MPC119998
P/2019 W1 (PANSTARRS),e,23.4700,35.3801,18.6867,4.549527,0.1015675,0.26675443,113.5402,05/30.0/2022,2000,g 12.9,4.0
# From MPEC 2021-P47
P/2019 X1 (Pruyne),e,10.2479,43.6729,36.7842,6.173079,0.0642616,0.30322210,67.0667,05/30.0/2022,2000,g 10.4,4.0
# From MPC119999
C/2019 Y1 (ATLAS),e,73.3224,31.5396,57.9416,85.81655,0.0012398,0.99032167,0.0000,03/15.6839/2020,2000,g 13.7,4.0
# From MPEC 2020-L06
C/2019 Y4 (ATLAS),h,05/31.0393/2020,45.7760,120.9593,177.2822,1.001408,0.252047,2000,11.6,6.0
# From MPEC 2020-L06
C/2019 Y4-A (ATLAS),h,05/31.0393/2020,45.7760,120.9593,177.2822,1.001408,0.252047,2000,11.6,6.0
# From MPEC 2020-L06
C/2019 Y4-B (ATLAS),e,45.4108,120.6549,177.4151,1456,0.0000177,0.99982585,0.0000,05/31.0173/2020,2000,g 12.8,6.0
# From MPEC 2020-L06
C/2019 Y4-C (ATLAS),h,05/30.9960/2020,45.5582,120.6854,177.3156,1.002128,0.253106,2000,12.7,6.0
# From MPEC 2020-L06
C/2019 Y4-D (ATLAS),e,45.6006,121.0641,177.4534,68.33120,0.0017449,0.99630516,0.0000,05/31.1169/2020,2000,g 12.5,6.0
# From MPEC 2021-P47
C/2019 Y5 (PANSTARRS),e,82.7887,51.7698,303.5261,799.7128,0.0000436,0.99385258,0.0000,08/18.2050/2019,2000,g 11.0,4.0
# From MPEC 2022-HC2
A/2020 A1,e,149.0396,119.2552,302.5773,25.51040,0.0076494,0.93463023,6.9558,05/30.0/2022,2000,g 18.0,2.0
# From MPEC 2020-L06
C/2020 A2 (Iwamoto),e,120.7008,286.3527,68.1550,1334,0.0000202,0.99926860,0.0000,01/08.5269/2020,2000,g 13.5,4.0
# From MPEC 2020-L06
C/2020 A3 (ATLAS),h,07/29.8340/2019,146.7660,120.3860,271.1562,1.026089,5.837202,2000,8.0,4.0
# From MPEC 2020-L06
C/2020 B3 (Rankin),e,20.7103,185.8472,324.9815,1044,0.0000292,0.99680009,0.0000,10/19.4246/2019,2000,g 13.0,4.0
# From MPEC 2022-H04
P/2020 B4 (Sheppard),e,11.6087,185.9794,342.2349,7.967041,0.0438287,0.19169296,8.2963,05/30.0/2022,2000,g 10.5,4.0
# From MPEC 2022-K19
C/2020 F2 (ATLAS),h,07/15.7934/2022,163.5844,250.2707,48.3583,1.005042,8.817105,2000,4.5,4.0
# From MPEC 2021-O56
C/2020 F3 (NEOWISE),e,129.0131,61.0359,37.3150,342.4113,0.0001556,0.99913774,0.0000,07/03.6088/2020,2000,g  7.5,5.2
# From MPEC 2022-CN4
C/2020 F5 (MASTER),e,52.2790,350.5276,310.7802,257.2430,0.0002389,0.98319414,0.0000,03/19.7035/2021,2000,g  6.5,3.2
# From MPEC 2020-L06
C/2020 F6 (PANSTARRS),e,174.5829,207.9036,344.6121,413.8312,0.0001171,0.99151922,0.0000,04/11.7713/2020,2000,g 14.5,2.8
# From MPEC 2022-HC2
C/2020 F7 (Lemmon),e,93.9515,321.8837,227.9606,646.5711,0.0000599,0.99175331,0.0000,11/13.9146/2021,2000,g  7.0,4.0
# From MPEC 2020-KB7
C/2020 F8 (SWAN),e,110.7213,259.9476,68.1669,265.0985,0.0002283,0.99837937,0.0000,05/27.5614/2020,2000,g 10.0,4.0
# From MPEC 2020-L06
P/2020 G1 (Pimentel),e,18.4921,240.1043,207.6243,3.609048,0.1437524,0.86005352,115.5252,05/30.0/2022,2000,g 17.0,4.0
# From MPEC 2020-L06
C/2020 H2 (Pruyne),e,124.9908,277.6540,26.7003,192.6803,0.0003685,0.99567698,0.0000,04/27.7354/2020,2000,g 18.0,4.0
# From MPEC 2020-HM1
C/2020 H3 (Wierzchos),p,06/05.7162/2020,62.5292,30.4456,2.300288,270.6227,2000,13.5,4.0
# From MPEC 2020-L06
C/2020 H4 (Leonard),e,84.5079,307.7154,117.5660,47.96848,0.0029667,0.98070076,0.0000,08/29.5787/2020,2000,g 15.0,3.2
# From MPEC 2022-K19
C/2020 H5 (Robinson),e,70.2431,210.6281,326.3844,3476,0.0000048,0.99731174,0.0000,12/11.5821/2020,2000,g  5.0,4.0
# From MPEC 2022-K19
C/2020 H6 (ATLAS),h,10/01.0180/2021,79.9744,213.7118,20.3404,1.000374,4.702827,2000,8.0,3.2
# From MPEC 2020-KB7
C/2020 H7 (Lemmon),e,135.9235,323.5194,82.6780,1405,0.0000187,0.99685380,0.0000,06/02.9510/2020,2000,g 11.0,4.0
# From MPEC 2021-N06
C/2020 H8 (PANSTARRS),e,99.6638,68.4122,128.9481,591.1892,0.0000686,0.99209063,0.0000,06/04.4859/2020,2000,g 10.5,4.0
# From MPEC 2022-ED3
A/2020 H9,e,137.8737,213.1602,312.8667,369.5384,0.0001387,0.99302487,0.0000,12/21.3632/2019,2000,g 18.0,2.0
# From MPEC 2022-K19
C/2020 J1 (SONEAR),h,04/18.6465/2021,142.3006,226.5891,341.7632,1.000683,3.355103,2000,8.5,3.2
# From MPEC 2022-K19
C/2020 K1 (PANSTARRS),e,89.6622,94.3568,213.9772,32096,0.0000002,0.99990424,0.0000,05/09.0671/2023,2000,g  5.5,4.0
# From MPEC 2021-N06
C/2020 K2 (PANSTARRS),h,08/06.0985/2020,91.0368,288.3655,67.3377,1.003646,8.879331,2000,10.8,4.0
# From MPEC 2020-KF9
C/2020 K3 (Leonard),p,06/01.0032/2020,129.0152,64.4924,1.583069,28.3546,2000,14.5,4.0
# From MPEC 2020-L06
C/2020 K4 (PANSTARRS),e,125.5752,264.1356,308.8285,23.92308,0.0084232,0.92666594,6.8840,05/30.0/2022,2000,g 16.5,4.0
# From MPEC 2021-R75
C/2020 K5 (PANSTARRS),h,06/05.5687/2021,67.1438,86.1667,249.5971,1.001484,1.535913,2000,11.0,4.0
# From MPEC 2022-K19
C/2020 K6 (Rankin),h,09/15.6990/2021,103.6472,291.5325,44.3203,1.003386,5.868593,2000,8.0,4.0
# From MPEC 2021-S45
C/2020 K7 (PANSTARRS),e,32.0394,286.0677,358.2541,100.7231,0.0009750,0.93655241,0.9207,05/30.0/2022,2000,g  8.0,4.0
# From MPEC 2021-P47
C/2020 K8 (Catalina-ATLAS),h,09/14.5932/2020,31.4287,181.5439,259.9894,1.000149,0.473412,2000,15.0,3.2
# From MPEC 2021-BE3
P/2020 K9 (Lemmon-PANSTARRS),e,23.2099,166.2390,196.9564,4.200323,0.1144933,0.32141213,54.0275,05/30.0/2022,2000,g 12.5,4.0
# From MPEC 2021-U31
P/2020 M1 (PANSTARRS),e,8.5767,142.7457,72.3307,5.311347,0.0805188,0.47711144,71.0478,05/30.0/2022,2000,g 14.5,4.0
# From MPEC 2022-H30
C/2020 M3 (ATLAS),e,23.4722,71.2110,328.4865,26.97132,0.0070364,0.95298919,4.0901,05/30.0/2022,2000,g 14.5,4.0
# From MPEC 2022-CN4
A/2020 M4,h,11/24.1864/2020,160.1278,348.6210,104.6558,1.000453,5.952615,2000,14.5,2.0
# From MPEC 2022-K19
C/2020 M5 (ATLAS),h,08/19.8732/2021,93.2252,352.0938,126.3327,1.000328,3.004152,2000,9.0,4.0
# From MPEC 2022-GA9
C/2020 N1 (PANSTARRS),h,03/12.2224/2021,29.7071,279.9644,186.7571,1.000445,1.320000,2000,12.5,4.0
# From MPEC 2021-P47
C/2020 N2 (ATLAS),e,161.0353,257.1115,331.2875,103.4559,0.0009366,0.98265552,0.0000,08/23.8231/2020,2000,g 16.0,3.2
# From MPEC 2020-SI8
P/2020 O1 (Lemmon-PANSTARRS),e,5.2259,175.9741,104.5313,2.644908,0.2291332,0.11923995,173.5804,05/30.0/2022,2000,g 15.5,4.0
# From MPEC 2022-K19
C/2020 O2 (Amaral),h,08/28.6571/2021,71.7529,256.7590,10.3154,1.002247,4.862397,2000,8.0,3.2
# From MPEC 2020-SI8
P/2020 O3 (PANSTARRS),e,8.4428,266.8226,81.5761,4.649558,0.0983075,0.10370738,47.6732,05/30.0/2022,2000,g 12.0,4.0
# From MPEC 2021-BE3
C/2020 P1 (NEOWISE),h,10/20.2342/2020,45.1095,53.5087,8.8870,1.000274,0.341549,2000,14.0,3.2
# From MPEC 2022-K19
C/2020 P3 (ATLAS),h,04/20.9235/2021,61.8872,19.4702,82.2546,1.000112,6.812330,2000,6.0,4.0
# From MPEC 2022-K19
C/2020 PV6 (PANSTARRS),e,128.2389,329.1453,71.3910,41.89830,0.0036342,0.94520768,0.8939,05/30.0/2022,2000,g 10.0,4.0
# From MPEC 2021-N06
C/2020 Q1 (Borisov),e,142.9212,52.4080,9.9028,58.56947,0.0021989,0.97754048,0.0000,08/14.5136/2020,2000,g 14.0,4.0
# From MPEC 2022-C56
C/2020 R2 (PANSTARRS),e,53.2284,195.0935,211.7501,405.4844,0.0001207,0.98842886,0.0000,02/24.6047/2022,2000,g  9.0,4.0
# From MPEC 2022-K19
C/2020 R4 (ATLAS),e,164.4618,323.2743,46.7211,99.26714,0.0009965,0.98963876,0.0000,03/01.9925/2021,2000,g 13.5,4.0
# From MPEC 2020-W26
P/2020 R5 (PANSTARRS),e,11.4503,272.9773,82.4863,4.984070,0.0885784,0.31472648,64.7421,05/30.0/2022,2000,g  9.5,6.0
# From MPEC 2021-Y10
C/2020 R6 (Rankin),e,82.8111,12.1776,271.9986,343.0877,0.0001551,0.99087174,0.0000,09/09.3514/2019,2000,g 11.0,4.0
# From MPEC 2022-K19
C/2020 R7 (ATLAS),h,09/16.2238/2022,114.8905,268.2819,347.8345,1.000061,2.955932,2000,7.0,3.2
# From MPEC 2021-BE3
P/2020 S1 (PANSTARRS),e,13.7328,129.4621,254.9449,5.987202,0.0672773,0.50759894,33.4872,05/30.0/2022,2000,g 14.0,4.0
# From MPEC 2021-BE3
C/2020 S2 (PANSTARRS),e,22.4012,197.6680,202.3036,10.20417,0.0302369,0.82789864,15.8430,05/30.0/2022,2000,g 17.0,4.0
# From MPEC 2022-C56
C/2020 S3 (Erasmus),e,19.9707,222.6971,350.0423,168.7578,0.0004496,0.99765112,0.0000,12/12.5830/2020,2000,g 13.5,3.2
# From MPEC 2022-H04
